STARLETTE               
1 07646U 75010A   17279.42017517 -.00000159  00000-0 -11215-4 0  9990
2 07646  49.8248  39.3289 0205685  12.2348 348.3435 13.82303182155237
LAGEOS 1                
1 08820U 76039A   17278.81445515  .00000009  00000-0  00000-0 0  9990
2 08820 109.8172 171.3018 0044559 262.0530 179.3141  6.38664712710607
AJISAI (EGS)            
1 16908U 86061A   17278.95472487 -.00000092  00000-0  41531-4 0  9996
2 16908  50.0084 193.9515 0011507  16.4334  66.7597 12.44486501 85021
LAGEOS 2                
1 22195U 92070B   17278.77152809 -.00000009  00000-0  00000-0 0  9991
2 22195  52.6459 114.1425 0137421 238.7432 354.8277  6.47294223589992
STELLA                  
1 22824U 93061B   17279.46475084 -.00000032  00000-0  56192-5 0  9995
2 22824  98.8316 237.3215 0007500  84.3365  32.7788 14.27370137251883
GRACE-1                 
1 27391U 02012A   17279.44812008  .00070561  00000-0  28445-3 0  9995
2 27391  88.9821 304.4426 0000884 223.5957 273.5543 15.86180835875044
GRACE-2                 
1 27392U 02012B   17279.23422354  .00089728  00000-0  36273-3 0  9997
2 27392  88.9828 304.6336 0001646 200.8240 159.2975 15.86081240875009
LARES                   
1 38077U 12006A   17279.31423700 -.00000022  00000-0  10000-3 0  9999
2 38077  69.4921 316.9204 0008894 176.9001 183.2085 12.54930847258719
